LEMUR-2-STAR-FOX        
1 62696U 25009CR  26068.81264061  .00009785  00000+0  77276-3 0  9995
2 62696  97.7038 151.2547 0002501 152.1910 207.9448 15.00891969 62647
STARLINK-35837          
1 66840U 25280V   26068.88984179  .00004917  00000+0  41961-3 0  9991
2 66840  70.0022 334.0388 0002934 271.4560  88.6263 14.98331300 16102
